STARLINK-6222           
1 56481U 23064AK  26068.56803102  .00000738  00000+0  69653-4 0  9996
2 56481  69.9995 124.6626 0003362 270.3889  89.6885 14.98330013155727
SATGUS                  
1 62713U 25009DJ  26068.70670884  .00009370  00000+0  76063-3 0  9990
2 62713  97.7097 150.9679 0005670  96.3538 263.8332 14.99840473 62643
